NORAD_CAT_ID,OBJECT_NAME,OBJECT_TYPE,EPOCH,MEAN_MOTION,ECCENTRICITY,INCLINATION,RA_OF_ASC_NODE,ARG_OF_PERICENTER,MEAN_ANOMALY,BSTAR,MEAN_MOTION_DOT,MEAN_MOTION_DDOT,TLE_LINE0,TLE_LINE1,TLE_LINE2,SEMIMAJOR_AXIS,PERIOD,APOGEE,PERIGEE,DECAYED
54055.0,STARLINK-5158,PAYLOAD,2022-11-26 14:00:01,15.32261915,0.0001799,53.2164,328.0235,36.5485,71.4503,-0.043131,-0.01250211,0.0,0 STARLINK-5158,1 54055U 22136E   22330.58334491 -.01250211  00000-0 -43131-1 0  9997,2 54055  53.2164 328.0235 0001799  36.5485  71.4503 15.32261915  1301,6847.2019999999975,93.979,470.299,467.836,0.0
54055.0,STARLINK-5158,PAYLOAD,2022-11-26 22:00:00,15.31384824,0.0001727,53.2168,326.4721,39.7931,107.396,-0.043359,-0.01224767,0.0,0 STARLINK-5158,1 54055U 22136E   22330.91667824 -.01224767  00000-0 -43359-1 0  9992,2 54055  53.2168 326.4721 0001727  39.7931 107.3960 15.31384824  1309,6849.816999999999,94.033,472.865,470.499,0.0
54055.0,STARLINK-5158,PAYLOAD,2022-11-27 14:00:01,15.29682878,0.0001712,53.2165,323.3791,41.2782,181.1717,-0.046391,-0.01241161,0.0,0 STARLINK-5158,1 54055U 22136E   22331.58334491 -.01241161  00000-0 -46391-1 0  9993,2 54055  53.2165 323.3791 0001712  41.2782 181.1717 15.29682878  6442,6854.897,94.137,477.935,475.588,0.0
54055.0,STARLINK-5158,PAYLOAD,2022-11-27 22:00:00,15.288123,0.0001651,53.2167,321.8338,39.3586,219.1867,-0.046853,-0.01221827,0.0,0 STARLINK-5158,1 54055U 22136E   22331.91667824 -.01221827  00000-0 -46853-1 0  9999,2 54055  53.2167 321.8338 0001651  39.3586 219.1867 15.28812300  1308,6857.499,94.191,480.496,478.231,0.0
54055.0,STARLINK-5158,PAYLOAD,2022-11-28 16:00:00,15.26874534,0.0001696999999999,53.2172,318.3674,37.0437,28.9404,-0.049184,-0.01209589,0.0,0 STARLINK-5158,1 54055U 22136E   22332.66667824 -.01209589  00000-0 -49184-1 0  9993,2 54055  53.2172 318.3674 0001697  37.0437  28.9404 15.26874534  6604,6863.299,94.31,486.329,484.0,0.0
54055.0,STARLINK-5158,PAYLOAD,2022-11-28 22:00:01,15.26235797,0.0001784,53.2168,317.2139,30.0538,330.6437,-0.050354,-0.01214129,0.0,0 STARLINK-5158,1 54055U 22136E   22332.91668981 -.01214129  00000-0 -50354-1 0  9993,2 54055  53.2168 317.2139 0001784  30.0538 330.6437 15.26235797  1319,6865.214,94.35,488.304,485.854,0.0
54055.0,STARLINK-5158,PAYLOAD,2022-11-29 14:00:01,15.24532378,0.0001861,53.2166,314.1453,36.3487,27.2506,-0.053744,-0.01229457,0.0,0 STARLINK-5158,1 54055U 22136E   22333.58335648 -.01229457  00000-0 -53744-1 0  9994,2 54055  53.2166 314.1453 0001861  36.3487  27.2506 15.24532378  6741,6870.3269999999975,94.455,493.471,490.913,0.0
54055.0,STARLINK-5158,PAYLOAD,2022-11-29 22:00:00,15.23687008,0.0001785,53.2167,312.6121,39.5315,53.9064,-0.055792,-0.01243086,0.0,0 STARLINK-5158,1 54055U 22136E   22333.91667824 -.01243086  00000-0 -55792-1 0  9994,2 54055  53.2167 312.6121 0001785  39.5315  53.9064 15.23687008  1309,6872.868,94.508,495.96,493.506,0.0
54055.0,STARLINK-5158,PAYLOAD,2022-11-30 14:00:01,15.21945096,0.0001868,53.2173,309.5546,39.9773,110.2663,-0.056896,-0.01206732,0.0,0 STARLINK-5158,1 54055U 22136E   22334.58335648 -.01206732  00000-0 -56896-1 0  9997,2 54055  53.2173 309.5546 0001868  39.9773 110.2663 15.21945096  6901,6878.111,94.616,501.261,498.691,0.0
54055.0,STARLINK-5158,PAYLOAD,2022-11-30 22:00:00,15.21088269,0.000181,53.2175,308.0278,44.7943,132.2046,-0.058346,-0.01206532,0.0,0 STARLINK-5158,1 54055U 22136E   22334.91667824 -.01206532  00000-0 -58346-1 0  9998,2 54055  53.2175 308.0278 0001810  44.7943 132.2046 15.21088269  1307,6880.694,94.669,503.804,501.31300000000016,0.0
54055.0,STARLINK-5158,PAYLOAD,2022-12-01 06:00:00,15.20230338,0.0001923,53.2174,306.5058,42.1262,160.6608,-0.059788,-0.01205641,0.0,0 STARLINK-5158,1 54055U 22136E   22335.25001157 -.01205641  00000-0 -59788-1 0  9998,2 54055  53.2174 306.5058 0001923  42.1262 160.6608 15.20230338  7003,6883.281999999997,94.722,506.471,503.824,0.0
54055.0,STARLINK-5158,PAYLOAD,2022-12-01 14:00:01,15.19374526,0.0001528,53.2174,304.983,59.3191,168.2267,-0.061433,-0.01207872,0.0,0 STARLINK-5158,1 54055U 22136E   22335.58334491 -.01207872  00000-0 -61433-1 0  9992,2 54055  53.2174 304.9830 0001528  59.3191 168.2267 15.19374526  1303,6885.8669999999975,94.776,508.784,506.68,0.0
54055.0,STARLINK-5158,PAYLOAD,2022-12-01 22:00:00,15.18548662,0.0001778,53.2167,303.463,41.8723,209.3854,-0.065208,-0.01248035,0.0,0 STARLINK-5158,1 54055U 22136E   22335.91667824 -.01248035  00000-0 -65208-1 0  9998,2 54055  53.2167 303.4630 0001778  41.8723 209.3854 15.18548662  1303,6888.363,94.827,511.453,509.003,0.0
54055.0,STARLINK-5158,PAYLOAD,2022-12-02 06:00:00,15.17658741,0.0001636,53.2175,301.9462,49.3616,224.6113,-0.064395,-0.01204818,0.0,0 STARLINK-5158,1 54055U 22136E   22336.25001157 -.01204818  00000-0 -64395-1 0  9994,2 54055  53.2175 301.9462 0001636  49.3616 224.6113 15.17658741  7151,6891.056,94.883,514.048,511.793,0.0
54055.0,STARLINK-5158,PAYLOAD,2022-12-02 14:00:01,15.16803696,0.0001563,53.2171,300.4297,43.8009,251.8406,-0.066265,-0.01209194,0.0,0 STARLINK-5158,1 54055U 22136E   22336.58334491 -.01209194  00000-0 -66265-1 0  9990,2 54055  53.2171 300.4297 0001563  43.8009 251.8406 15.16803696  1309,6893.645,94.936,516.5880000000002,514.433,0.0
54055.0,STARLINK-5158,PAYLOAD,2022-12-02 22:00:00,15.15965762,0.0001609,53.2168,298.9152,43.2038,273.0653,-0.069247,-0.01231569,0.0,0 STARLINK-5158,1 54055U 22136E   22336.91667824 -.01231569  00000-0 -69247-1 0  9990,2 54055  53.2168 298.9152 0001609  43.2038 273.0653 15.15965762  1305,6896.185,94.989,519.16,516.941,0.0
54055.0,STARLINK-5158,PAYLOAD,2022-12-03 08:00:01,15.14872849,0.0001625,53.2172,297.0276,43.8409,26.789,-0.069731,-0.01204448,0.0,0 STARLINK-5158,1 54055U 22136E   22337.33334491 -.01204448  00000-0 -69731-1 0  9992,2 54055  53.2172 297.0276 0001625  43.8409  26.7890 15.14872849  7318,6899.502,95.057,522.488,520.245,0.0
54055.0,STARLINK-5158,PAYLOAD,2022-12-03 14:00:01,15.14250162,0.0001556,53.2168,295.8942,44.2516,310.207,-0.07285,-0.01233596,0.0,0 STARLINK-5158,1 54055U 22136E   22337.58334491 -.01233596  00000-0 -72850-1 0  9991,2 54055  53.2168 295.8942 0001556  44.2516 310.2070 15.14250162  1308,6901.393,95.097,524.332,522.184,0.0
54055.0,STARLINK-5158,PAYLOAD,2022-12-03 22:00:00,15.13390884,0.0001633,53.2168,294.3857,39.8574,332.1498,-0.074234,-0.01227395,0.0,0 STARLINK-5158,1 54055U 22136E   22337.91667824 -.01227395  00000-0 -74234-1 0  9995,2 54055  53.2168 294.3857 0001633  39.8574 332.1498 15.13390884  1309,6904.005,95.151,526.997,524.743,0.0
54055.0,STARLINK-5158,PAYLOAD,2022-12-04 06:00:00,15.125469699999998,0.0001728,53.2171,292.8817,39.0827,349.4361,-0.077345,-0.01247,0.0,0 STARLINK-5158,1 54055U 22136E   22338.25001157 -.01247000  00000-0 -77345-1 0  9995,2 54055  53.2171 292.8817 0001728  39.0827 349.4361 15.12546970  7450,6906.573,95.204,529.631,527.244,0.0
54055.0,STARLINK-5158,PAYLOAD,2022-12-04 14:00:01,15.11670241,0.0001604,53.2169,291.3763,44.5787,359.4399,-0.077498,-0.01221388,0.0,0 STARLINK-5158,1 54055U 22136E   22338.58334491 -.01221388  00000-0 -77498-1 0  9991,2 54055  53.2169 291.3763 0001604  44.5787 359.4399 15.11670241  1308,6909.243,95.259,532.216,530.0,0.0
54055.0,STARLINK-5158,PAYLOAD,2022-12-04 22:00:00,15.1083503,0.0001665,53.2168,289.874,39.8623,18.6033,-0.081287,-0.01249038,0.0,0 STARLINK-5158,1 54055U 22136E   22338.91667824 -.01249038  00000-0 -81287-1 0  9990,2 54055  53.2168 289.8740 0001665  39.8623  18.6033 15.10835030  1304,6911.7890000000025,95.312,534.805,532.503,0.0
54055.0,STARLINK-5158,PAYLOAD,2022-12-05 14:00:01,15.09064654,0.0001685,53.217,286.8765,38.3534,46.0169,-0.021865,-0.003345,0.0,0 STARLINK-5158,1 54055U 22136E   22339.58335648 -.00334500  00000-0 -21865-1 0  9994,2 54055  53.2170 286.8765 0001685  38.3534  46.0169 15.09064654  1307,6917.194,95.423,540.224,537.893,0.0
54055.0,STARLINK-5158,PAYLOAD,2022-12-05 16:00:00,15.0888522,0.0001661,53.2171,286.5017,38.667,138.6368,-0.00505,-0.00079868,0.0,0 STARLINK-5158,1 54055U 22136E   22339.66667824 -.00079868  00000-0 -50500-2 0  9999,2 54055  53.2171 286.5017 0001661  38.6670 138.6368 15.08885220  7677,6917.7419999999975,95.435,540.756,538.4580000000002,0.0
54055.0,STARLINK-5158,PAYLOAD,2022-12-05 22:00:01,15.08836503,0.0001847,53.2176,285.3792,42.8388,53.2442,4.653e-05,4.52e-06,0.0,0 STARLINK-5158,1 54055U 22136E   22339.91668981  .00000452  00000-0  46530-4 0  9993,2 54055  53.2176 285.3792 0001847  42.8388  53.2442 15.08836503  1307,6917.891,95.438,541.034,538.4780000000002,0.0
54055.0,STARLINK-5158,PAYLOAD,2022-12-06 08:00:01,15.08839019,0.0001851,53.2134,283.5128,46.4242,154.1286,0.0030736,0.00048968,0.0,0 STARLINK-5158,1 54055U 22136E   22340.33334491  .00048968  00000-0  30736-2 0  9990,2 54055  53.2134 283.5128 0001851  46.4242 154.1286 15.08839019  7777,6917.8830000000025,95.438,541.029,538.4680000000002,0.0
54055.0,STARLINK-5158,PAYLOAD,2022-12-06 14:00:01,15.0889148,0.0001693,53.2136,282.3889,50.45399999999999,68.8685,-0.0051034,-0.00080714,0.0,0 STARLINK-5158,1 54055U 22136E   22340.58335648 -.00080714  00000-0 -51034-2 0  9993,2 54055  53.2136 282.3889 0001693  50.4540  68.8685 15.08891480  1307,6917.723000000001,95.434,540.759,538.4169999999998,0.0
54055.0,STARLINK-5158,PAYLOAD,2022-12-06 22:00:00,15.08854133,0.0001685,53.2137,280.8924,52.5105,78.3676,-0.0041288,-0.00065427,0.0,0 STARLINK-5158,1 54055U 22136E   22340.91667824 -.00065427  00000-0 -41288-2 0  9998,2 54055  53.2137 280.8924 0001685  52.5105  78.3676 15.08854133  1302,6917.837,95.437,540.868,538.5369999999998,0.0
54055.0,STARLINK-5158,PAYLOAD,2022-12-07 02:00:01,15.08831947,0.0001784,53.2135,280.1452,48.4323,268.2453,-0.0048725,-0.0007699,0.0,0 STARLINK-5158,1 54055U 22136E   22341.08334491 -.00076990  00000-0 -48725-2 0  9998,2 54055  53.2135 280.1452 0001784  48.4323 268.2453 15.08831947  7885,6917.905,95.438,541.004,538.536,0.0
